{
  "type": "FeatureCollection",
  "features": [
    {
      "type": "Feature",
      "properties": {
        "norad_id": 36744,
        "name": "COMS 1",
        "group": "weather",
        "lat": -2.4527315270086576,
        "lon": -67.82748723794855,
        "alt_km": 35782.10521238904,
        "timestamp": "2025-12-09T05:43:20.369665+00:00",
        "meta_object_name": "COMS 1",
        "meta_object_id": "2010-032A",
        "meta_epoch": "2025-12-08T17:38:17.054304",
        "meta_mean_motion": 1.00270994,
        "meta_eccentricity": 0.0001124,
        "meta_inclination": 4.3314,
        "meta_ra_of_asc_node": 78.0431,
        "meta_arg_of_pericenter": 199.5268,
        "meta_mean_anomaly": 192.9144,
        "meta_ephemeris_type": 0,
        "meta_classification_type": "U",
        "meta_norad_cat_id": 36744,
        "meta_element_set_no": 999,
        "meta_rev_at_epoch": 4918,
        "meta_bstar": 0,
        "meta_mean_motion_dot": -3.43e-06,
        "meta_mean_motion_ddot": 0,
        "tle_line1": "1 36744U 10032A   25342.73491961 -.00000343  00000+0  00000+0 0  9995",
        "tle_line2": "2 36744   4.3314  78.0431 0001124 199.5268 192.9144  1.00270994 49186"
      },
      "geometry": {
        "type": "Point",
        "coordinates": [
          -67.82748723794855,
          -2.4527315270086576
        ]
      }
    },
    {
      "type": "Feature",
      "properties": {
        "norad_id": 37214,
        "name": "FENGYUN 3B",
        "group": "weather",
        "lat": -31.242177570865405,
        "lon": -162.32020327010503,
        "alt_km": 863.7238279127941,
        "timestamp": "2025-12-09T05:43:20.369677+00:00",
        "meta_object_name": "FENGYUN 3B",
        "meta_object_id": "2010-059A",
        "meta_epoch": "2025-12-08T21:03:11.255904",
        "meta_mean_motion": 14.14786459,
        "meta_eccentricity": 0.0022288,
        "meta_inclination": 98.9907,
        "meta_ra_of_asc_node": 22.8273,
        "meta_arg_of_pericenter": 8.8055,
        "meta_mean_anomaly": 164.1321,
        "meta_ephemeris_type": 0,
        "meta_classification_type": "U",
        "meta_norad_cat_id": 37214,
        "meta_element_set_no": 999,
        "meta_rev_at_epoch": 78051,
        "meta_bstar": -7.9956e-05,
        "meta_mean_motion_dot": -2e-06,
        "meta_mean_motion_ddot": 0,
        "tle_line1": "1 37214U 10059A   25342.87721361 -.00000200  00000+0 -79956-4 0  9996",
        "tle_line2": "2 37214  98.9907  22.8273 0022288   8.8055 164.1321 14.14786459780511"
      },
      "geometry": {
        "type": "Point",
        "coordinates": [
          -162.32020327010503,
          -31.242177570865405
        ]
      }
    },
    {
      "type": "Feature",
      "properties": {
        "norad_id": 37849,
        "name": "SUOMI NPP",
        "group": "weather",
        "lat": -6.985578965588409,
        "lon": -78.30380046374829,
        "alt_km": 831.8123150737192,
        "timestamp": "2025-12-09T05:43:20.369689+00:00",
        "meta_object_name": "SUOMI NPP",
        "meta_object_id": "2011-061A",
        "meta_epoch": "2025-12-08T19:36:19.855872",
        "meta_mean_motion": 14.19512615,
        "meta_eccentricity": 0.0002112,
        "meta_inclination": 98.7768,
        "meta_ra_of_asc_node": 280.1939,
        "meta_arg_of_pericenter": 127.1152,
        "meta_mean_anomaly": 233.0217,
        "meta_ephemeris_type": 0,
        "meta_classification_type": "U",
        "meta_norad_cat_id": 37849,
        "meta_element_set_no": 999,
        "meta_rev_at_epoch": 73143,
        "meta_bstar": 0.00012478,
        "meta_mean_motion_dot": 2.19e-06,
        "meta_mean_motion_ddot": 0,
        "tle_line1": "1 37849U 11061A   25342.81689648  .00000219  00000+0  12478-3 0  9992",
        "tle_line2": "2 37849  98.7768 280.1939 0002112 127.1152 233.0217 14.19512615731436"
      },
      "geometry": {
        "type": "Point",
        "coordinates": [
          -78.30380046374829,
          -6.985578965588409
        ]
      }
    },
    {
      "type": "Feature",
      "properties": {
        "norad_id": 38552,
        "name": "METEOSAT-10 (MSG-3)",
        "group": "weather",
        "lat": 4.123152607673707,
        "lon": 164.2367345210727,
        "alt_km": 35787.51500112967,
        "timestamp": "2025-12-09T05:43:20.369701+00:00",
        "meta_object_name": "METEOSAT-10 (MSG-3)",
        "meta_object_id": "2012-035B",
        "meta_epoch": "2025-12-08T01:37:13.932768",
        "meta_mean_motion": 1.00273522,
        "meta_eccentricity": 8.845e-05,
        "meta_inclination": 4.2178,
        "meta_ra_of_asc_node": 61.7316,
        "meta_arg_of_pericenter": 234.9391,
        "meta_mean_anomaly": 164.8501,
        "meta_ephemeris_type": 0,
        "meta_classification_type": "U",
        "meta_norad_cat_id": 38552,
        "meta_element_set_no": 999,
        "meta_rev_at_epoch": 4894,
        "meta_bstar": 0,
        "meta_mean_motion_dot": -4e-08,
        "meta_mean_motion_ddot": 0,
        "tle_line1": "1 38552U 12035B   25342.06752237 -.00000004  00000+0  00000+0 0  9995",
        "tle_line2": "2 38552   4.2178  61.7316 0000884 234.9391 164.8501  1.00273522 48944"
      },
      "geometry": {
        "type": "Point",
        "coordinates": [
          164.2367345210727,
          4.123152607673707
        ]
      }
    },
    {
      "type": "Feature",
      "properties": {
        "norad_id": 38771,
        "name": "METOP-B",
        "group": "weather",
        "lat": -1.6015266210374701,
        "lon": -146.98828773951465,
        "alt_km": 822.0121449515336,
        "timestamp": "2025-12-09T05:43:20.369713+00:00",
        "meta_object_name": "METOP-B",
        "meta_object_id": "2012-049A",
        "meta_epoch": "2025-12-08T18:44:05.008992",
        "meta_mean_motion": 14.21406388,
        "meta_eccentricity": 0.0002746,
        "meta_inclination": 98.6804,
        "meta_ra_of_asc_node": 32.8064,
        "meta_arg_of_pericenter": 152.7578,
        "meta_mean_anomaly": 207.3744,
        "meta_ephemeris_type": 0,
        "meta_classification_type": "U",
        "meta_norad_cat_id": 38771,
        "meta_element_set_no": 999,
        "meta_rev_at_epoch": 68621,
        "meta_bstar": 0.00015082,
        "meta_mean_motion_dot": 2.86e-06,
        "meta_mean_motion_ddot": 0,
        "tle_line1": "1 38771U 12049A   25342.78061353  .00000286  00000+0  15082-3 0  9995",
        "tle_line2": "2 38771  98.6804  32.8064 0002746 152.7578 207.3744 14.21406388686217"
      },
      "geometry": {
        "type": "Point",
        "coordinates": [
          -146.98828773951465,
          -1.6015266210374701
        ]
      }
    },
    {
      "type": "Feature",
      "properties": {
        "norad_id": 39216,
        "name": "INSAT-3D",
        "group": "weather",
        "lat": -0.7040352296967443,
        "lon": -66.38198944318853,
        "alt_km": 35781.40603917008,
        "timestamp": "2025-12-09T05:43:20.369725+00:00",
        "meta_object_name": "INSAT-3D",
        "meta_object_id": "2013-038B",
        "meta_epoch": "2025-12-08T19:21:20.292768",
        "meta_mean_motion": 1.00271475,
        "meta_eccentricity": 0.000168,
        "meta_inclination": 1.4347,
        "meta_ra_of_asc_node": 85.0303,
        "meta_arg_of_pericenter": 162.2321,
        "meta_mean_anomaly": 250.4251,
        "meta_ephemeris_type": 0,
        "meta_classification_type": "U",
        "meta_norad_cat_id": 39216,
        "meta_element_set_no": 999,
        "meta_rev_at_epoch": 4517,
        "meta_bstar": 0,
        "meta_mean_motion_dot": -3.37e-06,
        "meta_mean_motion_ddot": 0,
        "tle_line1": "1 39216U 13038B   25342.80648487 -.00000337  00000+0  00000+0 0  9999",
        "tle_line2": "2 39216   1.4347  85.0303 0001680 162.2321 250.4251  1.00271475 45176"
      },
      "geometry": {
        "type": "Point",
        "coordinates": [
          -66.38198944318853,
          -0.7040352296967443
        ]
      }
    },
    {
      "type": "Feature",
      "properties": {
        "norad_id": 39260,
        "name": "FENGYUN 3C",
        "group": "weather",
        "lat": 39.090621358603656,
        "lon": 148.04684170525596,
        "alt_km": 832.8227909611469,
        "timestamp": "2025-12-09T05:43:20.369736+00:00",
        "meta_object_name": "FENGYUN 3C",
        "meta_object_id": "2013-052A",
        "meta_epoch": "2025-12-08T20:34:46.334208",
        "meta_mean_motion": 14.15694673,
        "meta_eccentricity": 0.0014069,
        "meta_inclination": 98.4759,
        "meta_ra_of_asc_node": 320.7265,
        "meta_arg_of_pericenter": 207.5826,
        "meta_mean_anomaly": 152.4604,
        "meta_ephemeris_type": 0,
        "meta_classification_type": "U",
        "meta_norad_cat_id": 39260,
        "meta_element_set_no": 999,
        "meta_rev_at_epoch": 63163,
        "meta_bstar": 0.00014698,
        "meta_mean_motion_dot": 2.47e-06,
        "meta_mean_motion_ddot": 0,
        "tle_line1": "1 39260U 13052A   25342.85748072  .00000247  00000+0  14698-3 0  9991",
        "tle_line2": "2 39260  98.4759 320.7265 0014069 207.5826 152.4604 14.15694673631636"
      },
      "geometry": {
        "type": "Point",
        "coordinates": [
          148.04684170525596,
          39.090621358603656
        ]
      }
    }
  ]
}